{
  "id": "pcmc_hinjawadi",
  "name": "Hinjawadi Phase 3 IT Corridor",
  "city": "Pimpri-Chinchwad (PCMC)",
  "bounds": [
    73.7363,
    18.5933,
    73.739078,
    18.59496
  ],
  "center": [
    73.737689,
    18.59413
  ],
  "distortion_type": "expansion",
  "cadastral": {
    "type": "FeatureCollection",
    "features": [
      {
        "type": "Feature",
        "id": "parcel-301",
        "geometry": {
          "type": "Polygon",
          "coordinates": [
            [
              [
                73.73650449,
                18.5935003
              ],
              [
                73.73686522,
                18.59350345
              ],
              [
                73.7368627,
                18.59379137
              ],
              [
                73.73650198,
                18.59378822
              ],
              [
                73.73650449,
                18.5935003
              ]
            ]
          ]
        },
        "properties": {
          "id": "parcel-301",
          "parcel_id": "301",
          "parcel_number": 301,
          "label": "Parcel 301",
          "area_sqm": 1228.0,
          "source_type": "authoritative_cadastral_simulated",
          "authority_level": 0.95,
          "is_synthetic": true,
          "timestamp": "1960-04-15",
          "conflict_m": 0.4,
          "heatColor": "#22c55e",
          "risk": "low",
          "confidence": 0.91
        }
      },
      {
        "type": "Feature",
        "id": "parcel-302",
        "geometry": {
          "type": "Polygon",
          "coordinates": [
            [
              [
                73.73690795,
                18.5935003
              ],
              [
                73.73726869,
                18.59350345
              ],
              [
                73.73726617,
                18.59379137
              ],
              [
                73.73690544,
                18.59378822
              ],
              [
                73.73690795,
                18.5935003
              ]
            ]
          ]
        },
        "properties": {
          "id": "parcel-302",
          "parcel_id": "302",
          "parcel_number": 302,
          "label": "Parcel 302",
          "area_sqm": 1240.0,
          "source_type": "authoritative_cadastral_simulated",
          "authority_level": 0.95,
          "is_synthetic": true,
          "timestamp": "1960-04-15",
          "conflict_m": 0.4,
          "heatColor": "#22c55e",
          "risk": "low",
          "confidence": 0.91
        }
      },
      {
        "type": "Feature",
        "id": "parcel-303",
        "geometry": {
          "type": "Polygon",
          "coordinates": [
            [
              [
                73.73731142,
                18.5935003
              ],
              [
                73.73767215,
                18.59350345
              ],
              [
                73.73766963,
                18.59379137
              ],
              [
                73.73730891,
                18.59378822
              ],
              [
                73.73731142,
                18.5935003
              ]
            ]
          ]
        },
        "properties": {
          "id": "parcel-303",
          "parcel_id": "303",
          "parcel_number": 303,
          "label": "Parcel 303",
          "area_sqm": 1252.0,
          "source_type": "authoritative_cadastral_simulated",
          "authority_level": 0.95,
          "is_synthetic": true,
          "timestamp": "1960-04-15",
          "conflict_m": 0.4,
          "heatColor": "#22c55e",
          "risk": "low",
          "confidence": 0.91
        }
      },
      {
        "type": "Feature",
        "id": "parcel-304",
        "geometry": {
          "type": "Polygon",
          "coordinates": [
            [
              [
                73.73771488,
                18.5935003
              ],
              [
                73.73807561,
                18.59350345
              ],
              [
                73.73807309,
                18.59379137
              ],
              [
                73.73771237,
                18.59378822
              ],
              [
                73.73771488,
                18.5935003
              ]
            ]
          ]
        },
        "properties": {
          "id": "parcel-304",
          "parcel_id": "304",
          "parcel_number": 304,
          "label": "Parcel 304",
          "area_sqm": 1264.0,
          "source_type": "authoritative_cadastral_simulated",
          "authority_level": 0.95,
          "is_synthetic": true,
          "timestamp": "1960-04-15",
          "conflict_m": 0.4,
          "heatColor": "#22c55e",
          "risk": "low",
          "confidence": 0.91
        }
      },
      {
        "type": "Feature",
        "id": "parcel-305",
        "geometry": {
          "type": "Polygon",
          "coordinates": [
            [
              [
                73.73811834,
                18.5935003
              ],
              [
                73.73847908,
                18.59350345
              ],
              [
                73.73847656,
                18.59379137
              ],
              [
                73.73811583,
                18.59378822
              ],
              [
                73.73811834,
                18.5935003
              ]
            ]
          ]
        },
        "properties": {
          "id": "parcel-305",
          "parcel_id": "305",
          "parcel_number": 305,
          "label": "Parcel 305",
          "area_sqm": 1216.0,
          "source_type": "authoritative_cadastral_simulated",
          "authority_level": 0.95,
          "is_synthetic": true,
          "timestamp": "1960-04-15",
          "conflict_m": 0.4,
          "heatColor": "#22c55e",
          "risk": "low",
          "confidence": 0.91
        }
      },
      {
        "type": "Feature",
        "id": "parcel-306",
        "geometry": {
          "type": "Polygon",
          "coordinates": [
            [
              [
                73.7385218,
                18.5935003
              ],
              [
                73.73888254,
                18.59350345
              ],
              [
                73.73888002,
                18.59379137
              ],
              [
                73.73851929,
                18.59378822
              ],
              [
                73.7385218,
                18.5935003
              ]
            ]
          ]
        },
        "properties": {
          "id": "parcel-306",
          "parcel_id": "306",
          "parcel_number": 306,
          "label": "Parcel 306",
          "area_sqm": 1228.0,
          "source_type": "authoritative_cadastral_simulated",
          "authority_level": 0.95,
          "is_synthetic": true,
          "timestamp": "1960-04-15",
          "conflict_m": 0.4,
          "heatColor": "#22c55e",
          "risk": "low",
          "confidence": 0.91
        }
      },
      {
        "type": "Feature",
        "id": "parcel-307",
        "geometry": {
          "type": "Polygon",
          "coordinates": [
            [
              [
                73.7365057,
                18.59382492
              ],
              [
                73.73686643,
                18.59382807
              ],
              [
                73.73686391,
                18.59411599
              ],
              [
                73.73650319,
                18.59411284
              ],
              [
                73.7365057,
                18.59382492
              ]
            ]
          ]
        },
        "properties": {
          "id": "parcel-307",
          "parcel_id": "307",
          "parcel_number": 307,
          "label": "Parcel 307",
          "area_sqm": 1240.0,
          "source_type": "authoritative_cadastral_simulated",
          "authority_level": 0.95,
          "is_synthetic": true,
          "timestamp": "1960-04-15",
          "conflict_m": 0.55,
          "heatColor": "#22c55e",
          "risk": "low",
          "confidence": 0.88
        }
      },
      {
        "type": "Feature",
        "id": "parcel-308",
        "geometry": {
          "type": "Polygon",
          "coordinates": [
            [
              [
                73.73690916,
                18.59382492
              ],
              [
                73.7372699,
                18.59382807
              ],
              [
                73.73726738,
                18.59411599
              ],
              [
                73.73690665,
                18.59411284
              ],
              [
                73.73690916,
                18.59382492
              ]
            ]
          ]
        },
        "properties": {
          "id": "parcel-308",
          "parcel_id": "308",
          "parcel_number": 308,
          "label": "Parcel 308",
          "area_sqm": 1252.0,
          "source_type": "authoritative_cadastral_simulated",
          "authority_level": 0.95,
          "is_synthetic": true,
          "timestamp": "1960-04-15",
          "conflict_m": 0.55,
          "heatColor": "#22c55e",
          "risk": "low",
          "confidence": 0.88
        }
      },
      {
        "type": "Feature",
        "id": "parcel-309",
        "geometry": {
          "type": "Polygon",
          "coordinates": [
            [
              [
                73.73733724,
                18.5938392
              ],
              [
                73.73769797,
                18.59384234
              ],
              [
                73.73769546,
                18.59413026
              ],
              [
                73.73733473,
                18.59412711
              ],
              [
                73.73733724,
                18.5938392
              ]
            ]
          ]
        },
        "properties": {
          "id": "parcel-309",
          "parcel_id": "309",
          "parcel_number": 309,
          "label": "Parcel 309",
          "area_sqm": 1264.0,
          "source_type": "authoritative_cadastral_simulated",
          "authority_level": 0.95,
          "is_synthetic": true,
          "timestamp": "1960-04-15",
          "conflict_m": 3.6,
          "heatColor": "#ef4444",
          "risk": "high",
          "confidence": 0.25
        }
      },
      {
        "type": "Feature",
        "id": "parcel-310",
        "geometry": {
          "type": "Polygon",
          "coordinates": [
            [
              [
                73.7377407,
                18.5938392
              ],
              [
                73.73810143,
                18.59384234
              ],
              [
                73.73809892,
                18.59413026
              ],
              [
                73.73773819,
                18.59412711
              ],
              [
                73.7377407,
                18.5938392
              ]
            ]
          ]
        },
        "properties": {
          "id": "parcel-310",
          "parcel_id": "310",
          "parcel_number": 310,
          "label": "Parcel 310",
          "area_sqm": 1216.0,
          "source_type": "authoritative_cadastral_simulated",
          "authority_level": 0.95,
          "is_synthetic": true,
          "timestamp": "1960-04-15",
          "conflict_m": 3.6,
          "heatColor": "#ef4444",
          "risk": "high",
          "confidence": 0.25
        }
      },
      {
        "type": "Feature",
        "id": "parcel-311",
        "geometry": {
          "type": "Polygon",
          "coordinates": [
            [
              [
                73.73811955,
                18.59382492
              ],
              [
                73.73848029,
                18.59382807
              ],
              [
                73.73847777,
                18.59411599
              ],
              [
                73.73811704,
                18.59411284
              ],
              [
                73.73811955,
                18.59382492
              ]
            ]
          ]
        },
        "properties": {
          "id": "parcel-311",
          "parcel_id": "311",
          "parcel_number": 311,
          "label": "Parcel 311",
          "area_sqm": 1228.0,
          "source_type": "authoritative_cadastral_simulated",
          "authority_level": 0.95,
          "is_synthetic": true,
          "timestamp": "1960-04-15",
          "conflict_m": 0.55,
          "heatColor": "#22c55e",
          "risk": "low",
          "confidence": 0.88
        }
      },
      {
        "type": "Feature",
        "id": "parcel-312",
        "geometry": {
          "type": "Polygon",
          "coordinates": [
            [
              [
                73.73852301,
                18.59382492
              ],
              [
                73.73888375,
                18.59382807
              ],
              [
                73.73888123,
                18.59411599
              ],
              [
                73.7385205,
                18.59411284
              ],
              [
                73.73852301,
                18.59382492
              ]
            ]
          ]
        },
        "properties": {
          "id": "parcel-312",
          "parcel_id": "312",
          "parcel_number": 312,
          "label": "Parcel 312",
          "area_sqm": 1240.0,
          "source_type": "authoritative_cadastral_simulated",
          "authority_level": 0.95,
          "is_synthetic": true,
          "timestamp": "1960-04-15",
          "conflict_m": 0.55,
          "heatColor": "#22c55e",
          "risk": "low",
          "confidence": 0.88
        }
      },
      {
        "type": "Feature",
        "id": "parcel-313",
        "geometry": {
          "type": "Polygon",
          "coordinates": [
            [
              [
                73.73650691,
                18.59414955
              ],
              [
                73.73686764,
                18.59415269
              ],
              [
                73.73686513,
                18.59444061
              ],
              [
                73.7365044,
                18.59443747
              ],
              [
                73.73650691,
                18.59414955
              ]
            ]
          ]
        },
        "properties": {
          "id": "parcel-313",
          "parcel_id": "313",
          "parcel_number": 313,
          "label": "Parcel 313",
          "area_sqm": 1252.0,
          "source_type": "authoritative_cadastral_simulated",
          "authority_level": 0.95,
          "is_synthetic": true,
          "timestamp": "1960-04-15",
          "conflict_m": 0.7,
          "heatColor": "#22c55e",
          "risk": "low",
          "confidence": 0.84
        }
      },
      {
        "type": "Feature",
        "id": "parcel-314",
        "geometry": {
          "type": "Polygon",
          "coordinates": [
            [
              [
                73.73691037,
                18.59414955
              ],
              [
                73.73727111,
                18.59415269
              ],
              [
                73.7372686,
                18.59444061
              ],
              [
                73.73690786,
                18.59443747
              ],
              [
                73.73691037,
                18.59414955
              ]
            ]
          ]
        },
        "properties": {
          "id": "parcel-314",
          "parcel_id": "314",
          "parcel_number": 314,
          "label": "Parcel 314",
          "area_sqm": 1264.0,
          "source_type": "authoritative_cadastral_simulated",
          "authority_level": 0.95,
          "is_synthetic": true,
          "timestamp": "1960-04-15",
          "conflict_m": 0.7,
          "heatColor": "#22c55e",
          "risk": "low",
          "confidence": 0.84
        }
      },
      {
        "type": "Feature",
        "id": "parcel-315",
        "geometry": {
          "type": "Polygon",
          "coordinates": [
            [
              [
                73.73733724,
                18.59416312
              ],
              [
                73.73769797,
                18.59416626
              ],
              [
                73.73769546,
                18.59445418
              ],
              [
                73.73733473,
                18.59445103
              ],
              [
                73.73733724,
                18.59416312
              ]
            ]
          ]
        },
        "properties": {
          "id": "parcel-315",
          "parcel_id": "315",
          "parcel_number": 315,
          "label": "Parcel 315",
          "area_sqm": 1216.0,
          "source_type": "authoritative_cadastral_simulated",
          "authority_level": 0.95,
          "is_synthetic": true,
          "timestamp": "1960-04-15",
          "conflict_m": 3.6,
          "heatColor": "#ef4444",
          "risk": "high",
          "confidence": 0.25
        }
      },
      {
        "type": "Feature",
        "id": "parcel-316",
        "geometry": {
          "type": "Polygon",
          "coordinates": [
            [
              [
                73.7377407,
                18.59416312
              ],
              [
                73.73810143,
                18.59416626
              ],
              [
                73.73809892,
                18.59445418
              ],
              [
                73.73773819,
                18.59445103
              ],
              [
                73.7377407,
                18.59416312
              ]
            ]
          ]
        },
        "properties": {
          "id": "parcel-316",
          "parcel_id": "316",
          "parcel_number": 316,
          "label": "Parcel 316",
          "area_sqm": 1228.0,
          "source_type": "authoritative_cadastral_simulated",
          "authority_level": 0.95,
          "is_synthetic": true,
          "timestamp": "1960-04-15",
          "conflict_m": 3.6,
          "heatColor": "#ef4444",
          "risk": "high",
          "confidence": 0.25
        }
      },
      {
        "type": "Feature",
        "id": "parcel-317",
        "geometry": {
          "type": "Polygon",
          "coordinates": [
            [
              [
                73.73812076,
                18.59414955
              ],
              [
                73.7384815,
                18.59415269
              ],
              [
                73.73847899,
                18.59444061
              ],
              [
                73.73811825,
                18.59443747
              ],
              [
                73.73812076,
                18.59414955
              ]
            ]
          ]
        },
        "properties": {
          "id": "parcel-317",
          "parcel_id": "317",
          "parcel_number": 317,
          "label": "Parcel 317",
          "area_sqm": 1240.0,
          "source_type": "authoritative_cadastral_simulated",
          "authority_level": 0.95,
          "is_synthetic": true,
          "timestamp": "1960-04-15",
          "conflict_m": 0.7,
          "heatColor": "#22c55e",
          "risk": "low",
          "confidence": 0.84
        }
      },
      {
        "type": "Feature",
        "id": "parcel-318",
        "geometry": {
          "type": "Polygon",
          "coordinates": [
            [
              [
                73.73852422,
                18.59414955
              ],
              [
                73.73888496,
                18.59415269
              ],
              [
                73.73888245,
                18.59444061
              ],
              [
                73.73852171,
                18.59443747
              ],
              [
                73.73852422,
                18.59414955
              ]
            ]
          ]
        },
        "properties": {
          "id": "parcel-318",
          "parcel_id": "318",
          "parcel_number": 318,
          "label": "Parcel 318",
          "area_sqm": 1252.0,
          "source_type": "authoritative_cadastral_simulated",
          "authority_level": 0.95,
          "is_synthetic": true,
          "timestamp": "1960-04-15",
          "conflict_m": 0.7,
          "heatColor": "#22c55e",
          "risk": "low",
          "confidence": 0.84
        }
      },
      {
        "type": "Feature",
        "id": "parcel-319",
        "geometry": {
          "type": "Polygon",
          "coordinates": [
            [
              [
                73.73650812,
                18.59447417
              ],
              [
                73.73686885,
                18.59447732
              ],
              [
                73.73686634,
                18.59476523
              ],
              [
                73.73650561,
                18.59476208
              ],
              [
                73.73650812,
                18.59447417
              ]
            ]
          ]
        },
        "properties": {
          "id": "parcel-319",
          "parcel_id": "319",
          "parcel_number": 319,
          "label": "Parcel 319",
          "area_sqm": 1264.0,
          "source_type": "authoritative_cadastral_simulated",
          "authority_level": 0.95,
          "is_synthetic": true,
          "timestamp": "1960-04-15",
          "conflict_m": 0.85,
          "heatColor": "#22c55e",
          "risk": "low",
          "confidence": 0.81
        }
      },
      {
        "type": "Feature",
        "id": "parcel-320",
        "geometry": {
          "type": "Polygon",
          "coordinates": [
            [
              [
                73.73691158,
                18.59447417
              ],
              [
                73.73727232,
                18.59447732
              ],
              [
                73.73726981,
                18.59476523
              ],
              [
                73.73690907,
                18.59476208
              ],
              [
                73.73691158,
                18.59447417
              ]
            ]
          ]
        },
        "properties": {
          "id": "parcel-320",
          "parcel_id": "320",
          "parcel_number": 320,
          "label": "Parcel 320",
          "area_sqm": 1216.0,
          "source_type": "authoritative_cadastral_simulated",
          "authority_level": 0.95,
          "is_synthetic": true,
          "timestamp": "1960-04-15",
          "conflict_m": 0.85,
          "heatColor": "#22c55e",
          "risk": "low",
          "confidence": 0.81
        }
      },
      {
        "type": "Feature",
        "id": "parcel-321",
        "geometry": {
          "type": "Polygon",
          "coordinates": [
            [
              [
                73.73731505,
                18.59447417
              ],
              [
                73.73767578,
                18.59447732
              ],
              [
                73.73767327,
                18.59476523
              ],
              [
                73.73731254,
                18.59476208
              ],
              [
                73.73731505,
                18.59447417
              ]
            ]
          ]
        },
        "properties": {
          "id": "parcel-321",
          "parcel_id": "321",
          "parcel_number": 321,
          "label": "Parcel 321",
          "area_sqm": 1228.0,
          "source_type": "authoritative_cadastral_simulated",
          "authority_level": 0.95,
          "is_synthetic": true,
          "timestamp": "1960-04-15",
          "conflict_m": 0.85,
          "heatColor": "#22c55e",
          "risk": "low",
          "confidence": 0.81
        }
      },
      {
        "type": "Feature",
        "id": "parcel-322",
        "geometry": {
          "type": "Polygon",
          "coordinates": [
            [
              [
                73.73771851,
                18.59447417
              ],
              [
                73.73807924,
                18.59447732
              ],
              [
                73.73807673,
                18.59476523
              ],
              [
                73.737716,
                18.59476208
              ],
              [
                73.73771851,
                18.59447417
              ]
            ]
          ]
        },
        "properties": {
          "id": "parcel-322",
          "parcel_id": "322",
          "parcel_number": 322,
          "label": "Parcel 322",
          "area_sqm": 1240.0,
          "source_type": "authoritative_cadastral_simulated",
          "authority_level": 0.95,
          "is_synthetic": true,
          "timestamp": "1960-04-15",
          "conflict_m": 0.85,
          "heatColor": "#22c55e",
          "risk": "low",
          "confidence": 0.81
        }
      },
      {
        "type": "Feature",
        "id": "parcel-323",
        "geometry": {
          "type": "Polygon",
          "coordinates": [
            [
              [
                73.73812197,
                18.59447417
              ],
              [
                73.73848271,
                18.59447732
              ],
              [
                73.7384802,
                18.59476523
              ],
              [
                73.73811946,
                18.59476208
              ],
              [
                73.73812197,
                18.59447417
              ]
            ]
          ]
        },
        "properties": {
          "id": "parcel-323",
          "parcel_id": "323",
          "parcel_number": 323,
          "label": "Parcel 323",
          "area_sqm": 1252.0,
          "source_type": "authoritative_cadastral_simulated",
          "authority_level": 0.95,
          "is_synthetic": true,
          "timestamp": "1960-04-15",
          "conflict_m": 0.85,
          "heatColor": "#22c55e",
          "risk": "low",
          "confidence": 0.81
        }
      },
      {
        "type": "Feature",
        "id": "parcel-324",
        "geometry": {
          "type": "Polygon",
          "coordinates": [
            [
              [
                73.73852543,
                18.59447417
              ],
              [
                73.73888617,
                18.59447732
              ],
              [
                73.73888366,
                18.59476523
              ],
              [
                73.73852292,
                18.59476208
              ],
              [
                73.73852543,
                18.59447417
              ]
            ]
          ]
        },
        "properties": {
          "id": "parcel-324",
          "parcel_id": "324",
          "parcel_number": 324,
          "label": "Parcel 324",
          "area_sqm": 1264.0,
          "source_type": "authoritative_cadastral_simulated",
          "authority_level": 0.95,
          "is_synthetic": true,
          "timestamp": "1960-04-15",
          "conflict_m": 0.85,
          "heatColor": "#22c55e",
          "risk": "low",
          "confidence": 0.81
        }
      }
    ]
  },
  "buildings": {
    "type": "FeatureCollection",
    "features": [
      {
        "type": "Feature",
        "id": "building-301",
        "geometry": {
          "type": "Polygon",
          "coordinates": [
            [
              [
                73.7365,
                18.5935
              ],
              [
                73.73686074,
                18.5935
              ],
              [
                73.73686074,
                18.59378793
              ],
              [
                73.7365,
                18.59378793
              ],
              [
                73.7365,
                18.5935
              ]
            ]
          ]
        },
        "properties": {
          "id": "building-301",
          "parcel_id": "301",
          "label": "Drone Footprint 301",
          "source_type": "derived_building_footprint_real",
          "authority_level": 0.72,
          "is_synthetic": false,
          "timestamp": "2024-05-18",
          "heatColor": "#22c55e",
          "area_sqm": 1228.0
        }
      },
      {
        "type": "Feature",
        "id": "building-302",
        "geometry": {
          "type": "Polygon",
          "coordinates": [
            [
              [
                73.73690346,
                18.5935
              ],
              [
                73.73726421,
                18.5935
              ],
              [
                73.73726421,
                18.59378793
              ],
              [
                73.73690346,
                18.59378793
              ],
              [
                73.73690346,
                18.5935
              ]
            ]
          ]
        },
        "properties": {
          "id": "building-302",
          "parcel_id": "302",
          "label": "Drone Footprint 302",
          "source_type": "derived_building_footprint_real",
          "authority_level": 0.72,
          "is_synthetic": false,
          "timestamp": "2024-05-18",
          "heatColor": "#22c55e",
          "area_sqm": 1240.0
        }
      },
      {
        "type": "Feature",
        "id": "building-303",
        "geometry": {
          "type": "Polygon",
          "coordinates": [
            [
              [
                73.73730693,
                18.5935
              ],
              [
                73.73766767,
                18.5935
              ],
              [
                73.73766767,
                18.59378793
              ],
              [
                73.73730693,
                18.59378793
              ],
              [
                73.73730693,
                18.5935
              ]
            ]
          ]
        },
        "properties": {
          "id": "building-303",
          "parcel_id": "303",
          "label": "Drone Footprint 303",
          "source_type": "derived_building_footprint_real",
          "authority_level": 0.72,
          "is_synthetic": false,
          "timestamp": "2024-05-18",
          "heatColor": "#22c55e",
          "area_sqm": 1252.0
        }
      },
      {
        "type": "Feature",
        "id": "building-304",
        "geometry": {
          "type": "Polygon",
          "coordinates": [
            [
              [
                73.73771039,
                18.5935
              ],
              [
                73.73807113,
                18.5935
              ],
              [
                73.73807113,
                18.59378793
              ],
              [
                73.73771039,
                18.59378793
              ],
              [
                73.73771039,
                18.5935
              ]
            ]
          ]
        },
        "properties": {
          "id": "building-304",
          "parcel_id": "304",
          "label": "Drone Footprint 304",
          "source_type": "derived_building_footprint_real",
          "authority_level": 0.72,
          "is_synthetic": false,
          "timestamp": "2024-05-18",
          "heatColor": "#22c55e",
          "area_sqm": 1264.0
        }
      },
      {
        "type": "Feature",
        "id": "building-305",
        "geometry": {
          "type": "Polygon",
          "coordinates": [
            [
              [
                73.73811385,
                18.5935
              ],
              [
                73.7384746,
                18.5935
              ],
              [
                73.7384746,
                18.59378793
              ],
              [
                73.73811385,
                18.59378793
              ],
              [
                73.73811385,
                18.5935
              ]
            ]
          ]
        },
        "properties": {
          "id": "building-305",
          "parcel_id": "305",
          "label": "Drone Footprint 305",
          "source_type": "derived_building_footprint_real",
          "authority_level": 0.72,
          "is_synthetic": false,
          "timestamp": "2024-05-18",
          "heatColor": "#22c55e",
          "area_sqm": 1216.0
        }
      },
      {
        "type": "Feature",
        "id": "building-306",
        "geometry": {
          "type": "Polygon",
          "coordinates": [
            [
              [
                73.73851731,
                18.5935
              ],
              [
                73.73887806,
                18.5935
              ],
              [
                73.73887806,
                18.59378793
              ],
              [
                73.73851731,
                18.59378793
              ],
              [
                73.73851731,
                18.5935
              ]
            ]
          ]
        },
        "properties": {
          "id": "building-306",
          "parcel_id": "306",
          "label": "Drone Footprint 306",
          "source_type": "derived_building_footprint_real",
          "authority_level": 0.72,
          "is_synthetic": false,
          "timestamp": "2024-05-18",
          "heatColor": "#22c55e",
          "area_sqm": 1228.0
        }
      },
      {
        "type": "Feature",
        "id": "building-307",
        "geometry": {
          "type": "Polygon",
          "coordinates": [
            [
              [
                73.7365,
                18.59382392
              ],
              [
                73.73686074,
                18.59382392
              ],
              [
                73.73686074,
                18.59411185
              ],
              [
                73.7365,
                18.59411185
              ],
              [
                73.7365,
                18.59382392
              ]
            ]
          ]
        },
        "properties": {
          "id": "building-307",
          "parcel_id": "307",
          "label": "Drone Footprint 307",
          "source_type": "derived_building_footprint_real",
          "authority_level": 0.72,
          "is_synthetic": false,
          "timestamp": "2024-05-18",
          "heatColor": "#22c55e",
          "area_sqm": 1240.0
        }
      },
      {
        "type": "Feature",
        "id": "building-308",
        "geometry": {
          "type": "Polygon",
          "coordinates": [
            [
              [
                73.73690346,
                18.59382392
              ],
              [
                73.73726421,
                18.59382392
              ],
              [
                73.73726421,
                18.59411185
              ],
              [
                73.73690346,
                18.59411185
              ],
              [
                73.73690346,
                18.59382392
              ]
            ]
          ]
        },
        "properties": {
          "id": "building-308",
          "parcel_id": "308",
          "label": "Drone Footprint 308",
          "source_type": "derived_building_footprint_real",
          "authority_level": 0.72,
          "is_synthetic": false,
          "timestamp": "2024-05-18",
          "heatColor": "#22c55e",
          "area_sqm": 1252.0
        }
      },
      {
        "type": "Feature",
        "id": "building-309",
        "geometry": {
          "type": "Polygon",
          "coordinates": [
            [
              [
                73.73730693,
                18.59382392
              ],
              [
                73.73766767,
                18.59382392
              ],
              [
                73.73766767,
                18.59411185
              ],
              [
                73.73730693,
                18.59411185
              ],
              [
                73.73730693,
                18.59382392
              ]
            ]
          ]
        },
        "properties": {
          "id": "building-309",
          "parcel_id": "309",
          "label": "Drone Footprint 309",
          "source_type": "derived_building_footprint_real",
          "authority_level": 0.72,
          "is_synthetic": false,
          "timestamp": "2024-05-18",
          "heatColor": "#ef4444",
          "area_sqm": 1264.0
        }
      },
      {
        "type": "Feature",
        "id": "building-310",
        "geometry": {
          "type": "Polygon",
          "coordinates": [
            [
              [
                73.73771039,
                18.59382392
              ],
              [
                73.73807113,
                18.59382392
              ],
              [
                73.73807113,
                18.59411185
              ],
              [
                73.73771039,
                18.59411185
              ],
              [
                73.73771039,
                18.59382392
              ]
            ]
          ]
        },
        "properties": {
          "id": "building-310",
          "parcel_id": "310",
          "label": "Drone Footprint 310",
          "source_type": "derived_building_footprint_real",
          "authority_level": 0.72,
          "is_synthetic": false,
          "timestamp": "2024-05-18",
          "heatColor": "#ef4444",
          "area_sqm": 1216.0
        }
      },
      {
        "type": "Feature",
        "id": "building-311",
        "geometry": {
          "type": "Polygon",
          "coordinates": [
            [
              [
                73.73811385,
                18.59382392
              ],
              [
                73.7384746,
                18.59382392
              ],
              [
                73.7384746,
                18.59411185
              ],
              [
                73.73811385,
                18.59411185
              ],
              [
                73.73811385,
                18.59382392
              ]
            ]
          ]
        },
        "properties": {
          "id": "building-311",
          "parcel_id": "311",
          "label": "Drone Footprint 311",
          "source_type": "derived_building_footprint_real",
          "authority_level": 0.72,
          "is_synthetic": false,
          "timestamp": "2024-05-18",
          "heatColor": "#22c55e",
          "area_sqm": 1228.0
        }
      },
      {
        "type": "Feature",
        "id": "building-312",
        "geometry": {
          "type": "Polygon",
          "coordinates": [
            [
              [
                73.73851731,
                18.59382392
              ],
              [
                73.73887806,
                18.59382392
              ],
              [
                73.73887806,
                18.59411185
              ],
              [
                73.73851731,
                18.59411185
              ],
              [
                73.73851731,
                18.59382392
              ]
            ]
          ]
        },
        "properties": {
          "id": "building-312",
          "parcel_id": "312",
          "label": "Drone Footprint 312",
          "source_type": "derived_building_footprint_real",
          "authority_level": 0.72,
          "is_synthetic": false,
          "timestamp": "2024-05-18",
          "heatColor": "#22c55e",
          "area_sqm": 1240.0
        }
      },
      {
        "type": "Feature",
        "id": "building-313",
        "geometry": {
          "type": "Polygon",
          "coordinates": [
            [
              [
                73.7365,
                18.59414784
              ],
              [
                73.73686074,
                18.59414784
              ],
              [
                73.73686074,
                18.59443577
              ],
              [
                73.7365,
                18.59443577
              ],
              [
                73.7365,
                18.59414784
              ]
            ]
          ]
        },
        "properties": {
          "id": "building-313",
          "parcel_id": "313",
          "label": "Drone Footprint 313",
          "source_type": "derived_building_footprint_real",
          "authority_level": 0.72,
          "is_synthetic": false,
          "timestamp": "2024-05-18",
          "heatColor": "#22c55e",
          "area_sqm": 1252.0
        }
      },
      {
        "type": "Feature",
        "id": "building-314",
        "geometry": {
          "type": "Polygon",
          "coordinates": [
            [
              [
                73.73690346,
                18.59414784
              ],
              [
                73.73726421,
                18.59414784
              ],
              [
                73.73726421,
                18.59443577
              ],
              [
                73.73690346,
                18.59443577
              ],
              [
                73.73690346,
                18.59414784
              ]
            ]
          ]
        },
        "properties": {
          "id": "building-314",
          "parcel_id": "314",
          "label": "Drone Footprint 314",
          "source_type": "derived_building_footprint_real",
          "authority_level": 0.72,
          "is_synthetic": false,
          "timestamp": "2024-05-18",
          "heatColor": "#22c55e",
          "area_sqm": 1264.0
        }
      },
      {
        "type": "Feature",
        "id": "building-315",
        "geometry": {
          "type": "Polygon",
          "coordinates": [
            [
              [
                73.73730693,
                18.59414784
              ],
              [
                73.73766767,
                18.59414784
              ],
              [
                73.73766767,
                18.59443577
              ],
              [
                73.73730693,
                18.59443577
              ],
              [
                73.73730693,
                18.59414784
              ]
            ]
          ]
        },
        "properties": {
          "id": "building-315",
          "parcel_id": "315",
          "label": "Drone Footprint 315",
          "source_type": "derived_building_footprint_real",
          "authority_level": 0.72,
          "is_synthetic": false,
          "timestamp": "2024-05-18",
          "heatColor": "#ef4444",
          "area_sqm": 1216.0
        }
      },
      {
        "type": "Feature",
        "id": "building-316",
        "geometry": {
          "type": "Polygon",
          "coordinates": [
            [
              [
                73.73771039,
                18.59414784
              ],
              [
                73.73807113,
                18.59414784
              ],
              [
                73.73807113,
                18.59443577
              ],
              [
                73.73771039,
                18.59443577
              ],
              [
                73.73771039,
                18.59414784
              ]
            ]
          ]
        },
        "properties": {
          "id": "building-316",
          "parcel_id": "316",
          "label": "Drone Footprint 316",
          "source_type": "derived_building_footprint_real",
          "authority_level": 0.72,
          "is_synthetic": false,
          "timestamp": "2024-05-18",
          "heatColor": "#ef4444",
          "area_sqm": 1228.0
        }
      },
      {
        "type": "Feature",
        "id": "building-317",
        "geometry": {
          "type": "Polygon",
          "coordinates": [
            [
              [
                73.73811385,
                18.59414784
              ],
              [
                73.7384746,
                18.59414784
              ],
              [
                73.7384746,
                18.59443577
              ],
              [
                73.73811385,
                18.59443577
              ],
              [
                73.73811385,
                18.59414784
              ]
            ]
          ]
        },
        "properties": {
          "id": "building-317",
          "parcel_id": "317",
          "label": "Drone Footprint 317",
          "source_type": "derived_building_footprint_real",
          "authority_level": 0.72,
          "is_synthetic": false,
          "timestamp": "2024-05-18",
          "heatColor": "#22c55e",
          "area_sqm": 1240.0
        }
      },
      {
        "type": "Feature",
        "id": "building-318",
        "geometry": {
          "type": "Polygon",
          "coordinates": [
            [
              [
                73.73851731,
                18.59414784
              ],
              [
                73.73887806,
                18.59414784
              ],
              [
                73.73887806,
                18.59443577
              ],
              [
                73.73851731,
                18.59443577
              ],
              [
                73.73851731,
                18.59414784
              ]
            ]
          ]
        },
        "properties": {
          "id": "building-318",
          "parcel_id": "318",
          "label": "Drone Footprint 318",
          "source_type": "derived_building_footprint_real",
          "authority_level": 0.72,
          "is_synthetic": false,
          "timestamp": "2024-05-18",
          "heatColor": "#22c55e",
          "area_sqm": 1252.0
        }
      },
      {
        "type": "Feature",
        "id": "building-319",
        "geometry": {
          "type": "Polygon",
          "coordinates": [
            [
              [
                73.7365,
                18.59447176
              ],
              [
                73.73686074,
                18.59447176
              ],
              [
                73.73686074,
                18.59475968
              ],
              [
                73.7365,
                18.59475968
              ],
              [
                73.7365,
                18.59447176
              ]
            ]
          ]
        },
        "properties": {
          "id": "building-319",
          "parcel_id": "319",
          "label": "Drone Footprint 319",
          "source_type": "derived_building_footprint_real",
          "authority_level": 0.72,
          "is_synthetic": false,
          "timestamp": "2024-05-18",
          "heatColor": "#22c55e",
          "area_sqm": 1264.0
        }
      },
      {
        "type": "Feature",
        "id": "building-320",
        "geometry": {
          "type": "Polygon",
          "coordinates": [
            [
              [
                73.73690346,
                18.59447176
              ],
              [
                73.73726421,
                18.59447176
              ],
              [
                73.73726421,
                18.59475968
              ],
              [
                73.73690346,
                18.59475968
              ],
              [
                73.73690346,
                18.59447176
              ]
            ]
          ]
        },
        "properties": {
          "id": "building-320",
          "parcel_id": "320",
          "label": "Drone Footprint 320",
          "source_type": "derived_building_footprint_real",
          "authority_level": 0.72,
          "is_synthetic": false,
          "timestamp": "2024-05-18",
          "heatColor": "#22c55e",
          "area_sqm": 1216.0
        }
      },
      {
        "type": "Feature",
        "id": "building-321",
        "geometry": {
          "type": "Polygon",
          "coordinates": [
            [
              [
                73.73730693,
                18.59447176
              ],
              [
                73.73766767,
                18.59447176
              ],
              [
                73.73766767,
                18.59475968
              ],
              [
                73.73730693,
                18.59475968
              ],
              [
                73.73730693,
                18.59447176
              ]
            ]
          ]
        },
        "properties": {
          "id": "building-321",
          "parcel_id": "321",
          "label": "Drone Footprint 321",
          "source_type": "derived_building_footprint_real",
          "authority_level": 0.72,
          "is_synthetic": false,
          "timestamp": "2024-05-18",
          "heatColor": "#22c55e",
          "area_sqm": 1228.0
        }
      },
      {
        "type": "Feature",
        "id": "building-322",
        "geometry": {
          "type": "Polygon",
          "coordinates": [
            [
              [
                73.73771039,
                18.59447176
              ],
              [
                73.73807113,
                18.59447176
              ],
              [
                73.73807113,
                18.59475968
              ],
              [
                73.73771039,
                18.59475968
              ],
              [
                73.73771039,
                18.59447176
              ]
            ]
          ]
        },
        "properties": {
          "id": "building-322",
          "parcel_id": "322",
          "label": "Drone Footprint 322",
          "source_type": "derived_building_footprint_real",
          "authority_level": 0.72,
          "is_synthetic": false,
          "timestamp": "2024-05-18",
          "heatColor": "#22c55e",
          "area_sqm": 1240.0
        }
      },
      {
        "type": "Feature",
        "id": "building-323",
        "geometry": {
          "type": "Polygon",
          "coordinates": [
            [
              [
                73.73811385,
                18.59447176
              ],
              [
                73.7384746,
                18.59447176
              ],
              [
                73.7384746,
                18.59475968
              ],
              [
                73.73811385,
                18.59475968
              ],
              [
                73.73811385,
                18.59447176
              ]
            ]
          ]
        },
        "properties": {
          "id": "building-323",
          "parcel_id": "323",
          "label": "Drone Footprint 323",
          "source_type": "derived_building_footprint_real",
          "authority_level": 0.72,
          "is_synthetic": false,
          "timestamp": "2024-05-18",
          "heatColor": "#22c55e",
          "area_sqm": 1252.0
        }
      },
      {
        "type": "Feature",
        "id": "building-324",
        "geometry": {
          "type": "Polygon",
          "coordinates": [
            [
              [
                73.73851731,
                18.59447176
              ],
              [
                73.73887806,
                18.59447176
              ],
              [
                73.73887806,
                18.59475968
              ],
              [
                73.73851731,
                18.59475968
              ],
              [
                73.73851731,
                18.59447176
              ]
            ]
          ]
        },
        "properties": {
          "id": "building-324",
          "parcel_id": "324",
          "label": "Drone Footprint 324",
          "source_type": "derived_building_footprint_real",
          "authority_level": 0.72,
          "is_synthetic": false,
          "timestamp": "2024-05-18",
          "heatColor": "#22c55e",
          "area_sqm": 1264.0
        }
      }
    ]
  },
  "extracted": {
    "type": "FeatureCollection",
    "features": [
      {
        "type": "Feature",
        "id": "extracted-boundary-301",
        "geometry": {
          "type": "LineString",
          "coordinates": [
            [
              73.7365,
              18.5935
            ],
            [
              73.73686074,
              18.5935
            ],
            [
              73.73686074,
              18.59378793
            ],
            [
              73.7365,
              18.59378793
            ],
            [
              73.7365,
              18.5935
            ]
          ]
        },
        "properties": {
          "id": "extracted-boundary-301",
          "parcel_id": "301",
          "confidence": 0.9,
          "method": "SegFormer-B0 Drone Segmentation",
          "source_type": "derived_imagery_real"
        }
      },
      {
        "type": "Feature",
        "id": "extracted-boundary-302",
        "geometry": {
          "type": "LineString",
          "coordinates": [
            [
              73.73690346,
              18.5935
            ],
            [
              73.73726421,
              18.5935
            ],
            [
              73.73726421,
              18.59378793
            ],
            [
              73.73690346,
              18.59378793
            ],
            [
              73.73690346,
              18.5935
            ]
          ]
        },
        "properties": {
          "id": "extracted-boundary-302",
          "parcel_id": "302",
          "confidence": 0.87,
          "method": "SegFormer-B0 Drone Segmentation",
          "source_type": "derived_imagery_real"
        }
      },
      {
        "type": "Feature",
        "id": "extracted-boundary-303",
        "geometry": {
          "type": "LineString",
          "coordinates": [
            [
              73.73730693,
              18.5935
            ],
            [
              73.73766767,
              18.5935
            ],
            [
              73.73766767,
              18.59378793
            ],
            [
              73.73730693,
              18.59378793
            ],
            [
              73.73730693,
              18.5935
            ]
          ]
        },
        "properties": {
          "id": "extracted-boundary-303",
          "parcel_id": "303",
          "confidence": 0.84,
          "method": "SegFormer-B0 Drone Segmentation",
          "source_type": "derived_imagery_real"
        }
      },
      {
        "type": "Feature",
        "id": "extracted-boundary-304",
        "geometry": {
          "type": "LineString",
          "coordinates": [
            [
              73.73771039,
              18.5935
            ],
            [
              73.73807113,
              18.5935
            ],
            [
              73.73807113,
              18.59378793
            ],
            [
              73.73771039,
              18.59378793
            ],
            [
              73.73771039,
              18.5935
            ]
          ]
        },
        "properties": {
          "id": "extracted-boundary-304",
          "parcel_id": "304",
          "confidence": 0.81,
          "method": "SegFormer-B0 Drone Segmentation",
          "source_type": "derived_imagery_real"
        }
      },
      {
        "type": "Feature",
        "id": "extracted-boundary-305",
        "geometry": {
          "type": "LineString",
          "coordinates": [
            [
              73.73811385,
              18.5935
            ],
            [
              73.7384746,
              18.5935
            ],
            [
              73.7384746,
              18.59378793
            ],
            [
              73.73811385,
              18.59378793
            ],
            [
              73.73811385,
              18.5935
            ]
          ]
        },
        "properties": {
          "id": "extracted-boundary-305",
          "parcel_id": "305",
          "confidence": 0.93,
          "method": "SegFormer-B0 Drone Segmentation",
          "source_type": "derived_imagery_real"
        }
      },
      {
        "type": "Feature",
        "id": "extracted-boundary-306",
        "geometry": {
          "type": "LineString",
          "coordinates": [
            [
              73.73851731,
              18.5935
            ],
            [
              73.73887806,
              18.5935
            ],
            [
              73.73887806,
              18.59378793
            ],
            [
              73.73851731,
              18.59378793
            ],
            [
              73.73851731,
              18.5935
            ]
          ]
        },
        "properties": {
          "id": "extracted-boundary-306",
          "parcel_id": "306",
          "confidence": 0.9,
          "method": "SegFormer-B0 Drone Segmentation",
          "source_type": "derived_imagery_real"
        }
      },
      {
        "type": "Feature",
        "id": "extracted-boundary-307",
        "geometry": {
          "type": "LineString",
          "coordinates": [
            [
              73.7365,
              18.59382392
            ],
            [
              73.73686074,
              18.59382392
            ],
            [
              73.73686074,
              18.59411185
            ],
            [
              73.7365,
              18.59411185
            ],
            [
              73.7365,
              18.59382392
            ]
          ]
        },
        "properties": {
          "id": "extracted-boundary-307",
          "parcel_id": "307",
          "confidence": 0.87,
          "method": "SegFormer-B0 Drone Segmentation",
          "source_type": "derived_imagery_real"
        }
      },
      {
        "type": "Feature",
        "id": "extracted-boundary-308",
        "geometry": {
          "type": "LineString",
          "coordinates": [
            [
              73.73690346,
              18.59382392
            ],
            [
              73.73726421,
              18.59382392
            ],
            [
              73.73726421,
              18.59411185
            ],
            [
              73.73690346,
              18.59411185
            ],
            [
              73.73690346,
              18.59382392
            ]
          ]
        },
        "properties": {
          "id": "extracted-boundary-308",
          "parcel_id": "308",
          "confidence": 0.84,
          "method": "SegFormer-B0 Drone Segmentation",
          "source_type": "derived_imagery_real"
        }
      },
      {
        "type": "Feature",
        "id": "extracted-boundary-309",
        "geometry": {
          "type": "LineString",
          "coordinates": [
            [
              73.73730693,
              18.59382392
            ],
            [
              73.73766767,
              18.59382392
            ],
            [
              73.73766767,
              18.59411185
            ],
            [
              73.73730693,
              18.59411185
            ],
            [
              73.73730693,
              18.59382392
            ]
          ]
        },
        "properties": {
          "id": "extracted-boundary-309",
          "parcel_id": "309",
          "confidence": 0.81,
          "method": "SegFormer-B0 Drone Segmentation",
          "source_type": "derived_imagery_real"
        }
      },
      {
        "type": "Feature",
        "id": "extracted-boundary-310",
        "geometry": {
          "type": "LineString",
          "coordinates": [
            [
              73.73771039,
              18.59382392
            ],
            [
              73.73807113,
              18.59382392
            ],
            [
              73.73807113,
              18.59411185
            ],
            [
              73.73771039,
              18.59411185
            ],
            [
              73.73771039,
              18.59382392
            ]
          ]
        },
        "properties": {
          "id": "extracted-boundary-310",
          "parcel_id": "310",
          "confidence": 0.93,
          "method": "SegFormer-B0 Drone Segmentation",
          "source_type": "derived_imagery_real"
        }
      },
      {
        "type": "Feature",
        "id": "extracted-boundary-311",
        "geometry": {
          "type": "LineString",
          "coordinates": [
            [
              73.73811385,
              18.59382392
            ],
            [
              73.7384746,
              18.59382392
            ],
            [
              73.7384746,
              18.59411185
            ],
            [
              73.73811385,
              18.59411185
            ],
            [
              73.73811385,
              18.59382392
            ]
          ]
        },
        "properties": {
          "id": "extracted-boundary-311",
          "parcel_id": "311",
          "confidence": 0.9,
          "method": "SegFormer-B0 Drone Segmentation",
          "source_type": "derived_imagery_real"
        }
      },
      {
        "type": "Feature",
        "id": "extracted-boundary-312",
        "geometry": {
          "type": "LineString",
          "coordinates": [
            [
              73.73851731,
              18.59382392
            ],
            [
              73.73887806,
              18.59382392
            ],
            [
              73.73887806,
              18.59411185
            ],
            [
              73.73851731,
              18.59411185
            ],
            [
              73.73851731,
              18.59382392
            ]
          ]
        },
        "properties": {
          "id": "extracted-boundary-312",
          "parcel_id": "312",
          "confidence": 0.87,
          "method": "SegFormer-B0 Drone Segmentation",
          "source_type": "derived_imagery_real"
        }
      },
      {
        "type": "Feature",
        "id": "extracted-boundary-313",
        "geometry": {
          "type": "LineString",
          "coordinates": [
            [
              73.7365,
              18.59414784
            ],
            [
              73.73686074,
              18.59414784
            ],
            [
              73.73686074,
              18.59443577
            ],
            [
              73.7365,
              18.59443577
            ],
            [
              73.7365,
              18.59414784
            ]
          ]
        },
        "properties": {
          "id": "extracted-boundary-313",
          "parcel_id": "313",
          "confidence": 0.84,
          "method": "SegFormer-B0 Drone Segmentation",
          "source_type": "derived_imagery_real"
        }
      },
      {
        "type": "Feature",
        "id": "extracted-boundary-314",
        "geometry": {
          "type": "LineString",
          "coordinates": [
            [
              73.73690346,
              18.59414784
            ],
            [
              73.73726421,
              18.59414784
            ],
            [
              73.73726421,
              18.59443577
            ],
            [
              73.73690346,
              18.59443577
            ],
            [
              73.73690346,
              18.59414784
            ]
          ]
        },
        "properties": {
          "id": "extracted-boundary-314",
          "parcel_id": "314",
          "confidence": 0.81,
          "method": "SegFormer-B0 Drone Segmentation",
          "source_type": "derived_imagery_real"
        }
      },
      {
        "type": "Feature",
        "id": "extracted-boundary-315",
        "geometry": {
          "type": "LineString",
          "coordinates": [
            [
              73.73730693,
              18.59414784
            ],
            [
              73.73766767,
              18.59414784
            ],
            [
              73.73766767,
              18.59443577
            ],
            [
              73.73730693,
              18.59443577
            ],
            [
              73.73730693,
              18.59414784
            ]
          ]
        },
        "properties": {
          "id": "extracted-boundary-315",
          "parcel_id": "315",
          "confidence": 0.93,
          "method": "SegFormer-B0 Drone Segmentation",
          "source_type": "derived_imagery_real"
        }
      },
      {
        "type": "Feature",
        "id": "extracted-boundary-316",
        "geometry": {
          "type": "LineString",
          "coordinates": [
            [
              73.73771039,
              18.59414784
            ],
            [
              73.73807113,
              18.59414784
            ],
            [
              73.73807113,
              18.59443577
            ],
            [
              73.73771039,
              18.59443577
            ],
            [
              73.73771039,
              18.59414784
            ]
          ]
        },
        "properties": {
          "id": "extracted-boundary-316",
          "parcel_id": "316",
          "confidence": 0.9,
          "method": "SegFormer-B0 Drone Segmentation",
          "source_type": "derived_imagery_real"
        }
      },
      {
        "type": "Feature",
        "id": "extracted-boundary-317",
        "geometry": {
          "type": "LineString",
          "coordinates": [
            [
              73.73811385,
              18.59414784
            ],
            [
              73.7384746,
              18.59414784
            ],
            [
              73.7384746,
              18.59443577
            ],
            [
              73.73811385,
              18.59443577
            ],
            [
              73.73811385,
              18.59414784
            ]
          ]
        },
        "properties": {
          "id": "extracted-boundary-317",
          "parcel_id": "317",
          "confidence": 0.87,
          "method": "SegFormer-B0 Drone Segmentation",
          "source_type": "derived_imagery_real"
        }
      },
      {
        "type": "Feature",
        "id": "extracted-boundary-318",
        "geometry": {
          "type": "LineString",
          "coordinates": [
            [
              73.73851731,
              18.59414784
            ],
            [
              73.73887806,
              18.59414784
            ],
            [
              73.73887806,
              18.59443577
            ],
            [
              73.73851731,
              18.59443577
            ],
            [
              73.73851731,
              18.59414784
            ]
          ]
        },
        "properties": {
          "id": "extracted-boundary-318",
          "parcel_id": "318",
          "confidence": 0.84,
          "method": "SegFormer-B0 Drone Segmentation",
          "source_type": "derived_imagery_real"
        }
      },
      {
        "type": "Feature",
        "id": "extracted-boundary-319",
        "geometry": {
          "type": "LineString",
          "coordinates": [
            [
              73.7365,
              18.59447176
            ],
            [
              73.73686074,
              18.59447176
            ],
            [
              73.73686074,
              18.59475968
            ],
            [
              73.7365,
              18.59475968
            ],
            [
              73.7365,
              18.59447176
            ]
          ]
        },
        "properties": {
          "id": "extracted-boundary-319",
          "parcel_id": "319",
          "confidence": 0.81,
          "method": "SegFormer-B0 Drone Segmentation",
          "source_type": "derived_imagery_real"
        }
      },
      {
        "type": "Feature",
        "id": "extracted-boundary-320",
        "geometry": {
          "type": "LineString",
          "coordinates": [
            [
              73.73690346,
              18.59447176
            ],
            [
              73.73726421,
              18.59447176
            ],
            [
              73.73726421,
              18.59475968
            ],
            [
              73.73690346,
              18.59475968
            ],
            [
              73.73690346,
              18.59447176
            ]
          ]
        },
        "properties": {
          "id": "extracted-boundary-320",
          "parcel_id": "320",
          "confidence": 0.93,
          "method": "SegFormer-B0 Drone Segmentation",
          "source_type": "derived_imagery_real"
        }
      },
      {
        "type": "Feature",
        "id": "extracted-boundary-321",
        "geometry": {
          "type": "LineString",
          "coordinates": [
            [
              73.73730693,
              18.59447176
            ],
            [
              73.73766767,
              18.59447176
            ],
            [
              73.73766767,
              18.59475968
            ],
            [
              73.73730693,
              18.59475968
            ],
            [
              73.73730693,
              18.59447176
            ]
          ]
        },
        "properties": {
          "id": "extracted-boundary-321",
          "parcel_id": "321",
          "confidence": 0.9,
          "method": "SegFormer-B0 Drone Segmentation",
          "source_type": "derived_imagery_real"
        }
      },
      {
        "type": "Feature",
        "id": "extracted-boundary-322",
        "geometry": {
          "type": "LineString",
          "coordinates": [
            [
              73.73771039,
              18.59447176
            ],
            [
              73.73807113,
              18.59447176
            ],
            [
              73.73807113,
              18.59475968
            ],
            [
              73.73771039,
              18.59475968
            ],
            [
              73.73771039,
              18.59447176
            ]
          ]
        },
        "properties": {
          "id": "extracted-boundary-322",
          "parcel_id": "322",
          "confidence": 0.87,
          "method": "SegFormer-B0 Drone Segmentation",
          "source_type": "derived_imagery_real"
        }
      },
      {
        "type": "Feature",
        "id": "extracted-boundary-323",
        "geometry": {
          "type": "LineString",
          "coordinates": [
            [
              73.73811385,
              18.59447176
            ],
            [
              73.7384746,
              18.59447176
            ],
            [
              73.7384746,
              18.59475968
            ],
            [
              73.73811385,
              18.59475968
            ],
            [
              73.73811385,
              18.59447176
            ]
          ]
        },
        "properties": {
          "id": "extracted-boundary-323",
          "parcel_id": "323",
          "confidence": 0.84,
          "method": "SegFormer-B0 Drone Segmentation",
          "source_type": "derived_imagery_real"
        }
      },
      {
        "type": "Feature",
        "id": "extracted-boundary-324",
        "geometry": {
          "type": "LineString",
          "coordinates": [
            [
              73.73851731,
              18.59447176
            ],
            [
              73.73887806,
              18.59447176
            ],
            [
              73.73887806,
              18.59475968
            ],
            [
              73.73851731,
              18.59475968
            ],
            [
              73.73851731,
              18.59447176
            ]
          ]
        },
        "properties": {
          "id": "extracted-boundary-324",
          "parcel_id": "324",
          "confidence": 0.81,
          "method": "SegFormer-B0 Drone Segmentation",
          "source_type": "derived_imagery_real"
        }
      }
    ]
  },
  "control": {
    "type": "FeatureCollection",
    "features": [
      {
        "type": "Feature",
        "id": "gnss-P-301",
        "geometry": {
          "type": "Point",
          "coordinates": [
            73.7365,
            18.59378793
          ]
        },
        "properties": {
          "id": "gnss-P-301",
          "name": "P-301",
          "label": "P-301",
          "parcel_id": "301",
          "source_type": "synthetic_control",
          "authority_level": 0.85,
          "positional_accuracy_m": 0.02,
          "timestamp": "2024-02-14",
          "equipment": "Trimble R12 GNSS Receiver (RTK)"
        }
      },
      {
        "type": "Feature",
        "id": "gnss-P-302",
        "geometry": {
          "type": "Point",
          "coordinates": [
            73.73726421,
            18.5935
          ]
        },
        "properties": {
          "id": "gnss-P-302",
          "name": "P-302",
          "label": "P-302",
          "parcel_id": "302",
          "source_type": "synthetic_control",
          "authority_level": 0.85,
          "positional_accuracy_m": 0.035,
          "timestamp": "2024-02-14",
          "equipment": "Trimble R12 GNSS Receiver (RTK)"
        }
      },
      {
        "type": "Feature",
        "id": "gnss-P-303",
        "geometry": {
          "type": "Point",
          "coordinates": [
            73.73730693,
            18.5935
          ]
        },
        "properties": {
          "id": "gnss-P-303",
          "name": "P-303",
          "label": "P-303",
          "parcel_id": "303",
          "source_type": "synthetic_control",
          "authority_level": 0.85,
          "positional_accuracy_m": 0.05,
          "timestamp": "2024-02-14",
          "equipment": "Trimble R12 GNSS Receiver (RTK)"
        }
      },
      {
        "type": "Feature",
        "id": "gnss-P-304",
        "geometry": {
          "type": "Point",
          "coordinates": [
            73.73807113,
            18.59378793
          ]
        },
        "properties": {
          "id": "gnss-P-304",
          "name": "P-304",
          "label": "P-304",
          "parcel_id": "304",
          "source_type": "synthetic_control",
          "authority_level": 0.85,
          "positional_accuracy_m": 0.065,
          "timestamp": "2024-02-14",
          "equipment": "Trimble R12 GNSS Receiver (RTK)"
        }
      },
      {
        "type": "Feature",
        "id": "gnss-P-305",
        "geometry": {
          "type": "Point",
          "coordinates": [
            73.73811385,
            18.5935
          ]
        },
        "properties": {
          "id": "gnss-P-305",
          "name": "P-305",
          "label": "P-305",
          "parcel_id": "305",
          "source_type": "synthetic_control",
          "authority_level": 0.85,
          "positional_accuracy_m": 0.08,
          "timestamp": "2024-02-14",
          "equipment": "Trimble R12 GNSS Receiver (RTK)"
        }
      },
      {
        "type": "Feature",
        "id": "gnss-P-306",
        "geometry": {
          "type": "Point",
          "coordinates": [
            73.73887806,
            18.5935
          ]
        },
        "properties": {
          "id": "gnss-P-306",
          "name": "P-306",
          "label": "P-306",
          "parcel_id": "306",
          "source_type": "synthetic_control",
          "authority_level": 0.85,
          "positional_accuracy_m": 0.095,
          "timestamp": "2024-02-14",
          "equipment": "Trimble R12 GNSS Receiver (RTK)"
        }
      },
      {
        "type": "Feature",
        "id": "gnss-P-307",
        "geometry": {
          "type": "Point",
          "coordinates": [
            73.7365,
            18.59411185
          ]
        },
        "properties": {
          "id": "gnss-P-307",
          "name": "P-307",
          "label": "P-307",
          "parcel_id": "307",
          "source_type": "synthetic_control",
          "authority_level": 0.85,
          "positional_accuracy_m": 0.11,
          "timestamp": "2024-02-14",
          "equipment": "Trimble R12 GNSS Receiver (RTK)"
        }
      },
      {
        "type": "Feature",
        "id": "gnss-P-308",
        "geometry": {
          "type": "Point",
          "coordinates": [
            73.73726421,
            18.59382392
          ]
        },
        "properties": {
          "id": "gnss-P-308",
          "name": "P-308",
          "label": "P-308",
          "parcel_id": "308",
          "source_type": "synthetic_control",
          "authority_level": 0.85,
          "positional_accuracy_m": 0.125,
          "timestamp": "2024-02-14",
          "equipment": "Trimble R12 GNSS Receiver (RTK)"
        }
      }
    ]
  },
  "municipal": {
    "type": "FeatureCollection",
    "features": [
      {
        "type": "Feature",
        "id": "road-pcmc_hinjawadi-north",
        "geometry": {
          "type": "LineString",
          "coordinates": [
            [
              73.73620000000001,
              18.59495968
            ],
            [
              73.73917806,
              18.59495968
            ]
          ]
        },
        "properties": {
          "name": "Hinjawadi Phase 3 IT Corridor Main Access Road",
          "highway": "primary",
          "authority_level": 0.68
        }
      },
      {
        "type": "Feature",
        "id": "road-pcmc_hinjawadi-south",
        "geometry": {
          "type": "LineString",
          "coordinates": [
            [
              73.73620000000001,
              18.5933
            ],
            [
              73.73917806,
              18.5933
            ]
          ]
        },
        "properties": {
          "name": "Hinjawadi Phase 3 IT Corridor Sector Bypass",
          "highway": "secondary",
          "authority_level": 0.68
        }
      },
      {
        "type": "Feature",
        "id": "road-pcmc_hinjawadi-mid",
        "geometry": {
          "type": "LineString",
          "coordinates": [
            [
              73.73768903000001,
              18.5932
            ],
            [
              73.73768903000001,
              18.59505968
            ]
          ]
        },
        "properties": {
          "name": "Municipal Internal Corridor",
          "highway": "residential",
          "authority_level": 0.68
        }
      }
    ]
  },
  "provenance": {
    "area": "Hinjawadi Phase 3 IT Corridor, Pimpri-Chinchwad (PCMC), Maharashtra",
    "bbox": [
      18.5935,
      73.7365,
      18.59476,
      73.738878
    ],
    "crs_original": "EPSG:32643 (UTM Zone 43N)",
    "crs_normalized": "EPSG:4326 (WGS84)",
    "source_authority": "Revenue & Forest Dept, Govt of Maharashtra",
    "imagery_source": "Esri World Imagery / SVAMITVA Orthomosaic"
  }
}